[{"OBJECT_NAME":"STARLINK-34610","OBJECT_ID":"2025-161V","EPOCH":"2026-03-09T22:02:28.987584","MEAN_MOTION":15.30219134,"ECCENTRICITY":9.472e-5,"INCLINATION":53.1582,"RA_OF_ASC_NODE":293.2266,"ARG_OF_PERICENTER":115.2308,"MEAN_ANOMALY":244.8791,"EPHEMERIS_TYPE":0,"CLASSIFICATION_TYPE":"U","NORAD_CAT_ID":65034,"ELEMENT_SET_NO":999,"REV_AT_EPOCH":3426,"BSTAR":0.0010418759,"MEAN_MOTION_DOT":0.00030644,"MEAN_MOTION_DDOT":0},{"OBJECT_NAME":"TRANSPORTER-1 OBJECT AA","OBJECT_ID":"2021-006AA","EPOCH":"2026-03-09T22:58:14.761920","MEAN_MOTION":15.29982294,"ECCENTRICITY":0.00086604,"INCLINATION":97.2381,"RA_OF_ASC_NODE":112.457,"ARG_OF_PERICENTER":185.709,"MEAN_ANOMALY":174.4054,"EPHEMERIS_TYPE":0,"CLASSIFICATION_TYPE":"U","NORAD_CAT_ID":47437,"ELEMENT_SET_NO":999,"REV_AT_EPOCH":28414,"BSTAR":0.0002197941,"MEAN_MOTION_DOT":6.312e-5,"MEAN_MOTION_DDOT":0}]
